STARLINK-31181          
1 58746U 24005U   26079.16186105  .00000613  00000+0  31805-4 0  9993
2 58746  43.0011   8.3774 0001002 276.8670  83.2067 15.27577379123880
STARLINK-31183          
1 58747U 24005V   26079.22147360  .00001011  00000+0  47368-4 0  9995
2 58747  43.0047 160.3445 0001659 278.0938  81.9726 15.26742859122155
STARLINK-31165          
1 58748U 24005W   26079.22609267  .00001509  00000+0  64337-4 0  9992
2 58748  43.0031 160.3726 0001437 258.2119 101.8572 15.27587968122055
STARLINK-31160          
1 58749U 24005X   26079.21859647  .00000512  00000+0  28779-4 0  9994
2 58749  43.0062 160.2508 0001571 261.9418  98.1255 15.26743762122050
STARLINK-31179          
1 58750U 24005Y   26078.29576534 -.00000273  00000+0 -50056-6 0  9995
2 58750  43.0058 165.4288 0001605 270.7649  89.3018 15.26728390121914
STARLINK-31127          
1 58765U 24011A   26079.09984697  .00000533  00000+0  30124-4 0  9999
2 58765  53.1611 325.3594 0001402  76.8407 283.2750 15.30198102121865
STARLINK-31114          
1 58766U 24011B   26079.04350508  .00000075  00000+0  14650-4 0  9990
2 58766  53.1601 323.6109 0001114  86.4959 273.6170 15.30192608121883
STARLINK-31140          
1 58767U 24011C   26079.09351456  .00000816  00000+0  39681-4 0  9993
2 58767  53.1611 325.3179 0001082  75.4261 284.6860 15.30195895121866
STARLINK-31146          
1 58769U 24011E   26079.09034774  .00002054  00000+0  81464-4 0  9998
2 58769  53.1611 325.2981 0001140  84.4617 275.6514 15.30199644121860
STARLINK-31143          
1 58770U 24011F   26079.08718316  .00000529  00000+0  29987-4 0  9997
2 58770  53.1613 325.2775 0001321  75.5065 284.6083 15.30193351121864
STARLINK-31135          
1 58771U 24011G   26078.96763705  .00000028  00000+0  13068-4 0  9993
2 58771  53.1604 323.8431 0000858  63.6711 296.4378 15.30195486121878
STARLINK-31136          
1 58772U 24011H   26079.09668134  .00003367  00000+0  12575-3 0  9999
2 58772  53.1593 325.3334 0001084  75.0431 285.0690 15.30198558121855
STARLINK-31073          
1 58773U 24011J   26079.10301318  .00001066  00000+0  48105-4 0  9993
2 58773  53.1609 325.3760 0001135  71.5059 288.6065 15.30197496121867
STARLINK-31122          
1 58774U 24011K   26078.97871470 -.00000180  00000+0  60522-5 0  9994
2 58774  53.1608 326.0172 0001120  92.5967 267.5162 15.30196423121848
STARLINK-31123          
1 58775U 24011L   26079.08191093  .00002419  00000+0  93765-4 0  9994
2 58775  53.1603 325.2400 0001294  85.6499 274.4649 15.30203335121864
STARLINK-31117          
1 58776U 24011M   26079.11670756 -.00009361  00000+0 -30372-3 0  9996
2 58776  53.1608 325.4529 0001102  66.7812 293.3304 15.30265193121869
STARLINK-31132          
1 58777U 24011N   26078.84303421  .00000889  00000+0  42130-4 0  9998
2 58777  53.1598 236.3719 0001198  88.7345 271.3793 15.30196487123116
