[{"OBJECT_NAME":"STARLINK-31181","OBJECT_ID":"2024-005U","EPOCH":"2026-03-20T03:53:04.794720","MEAN_MOTION":15.27577379,"ECCENTRICITY":0.0001002,"INCLINATION":43.0011,"RA_OF_ASC_NODE":8.3774,"ARG_OF_PERICENTER":276.867,"MEAN_ANOMALY":83.2067,"EPHEMERIS_TYPE":0,"CLASSIFICATION_TYPE":"U","NORAD_CAT_ID":58746,"ELEMENT_SET_NO":999,"REV_AT_EPOCH":12388,"BSTAR":3.1805e-5,"MEAN_MOTION_DOT":6.13e-6,"MEAN_MOTION_DDOT":0},{"OBJECT_NAME":"STARLINK-31183","OBJECT_ID":"2024-005V","EPOCH":"2026-03-20T05:18:55.319040","MEAN_MOTION":15.26742859,"ECCENTRICITY":0.0001659,"INCLINATION":43.0047,"RA_OF_ASC_NODE":160.3445,"ARG_OF_PERICENTER":278.0938,"MEAN_ANOMALY":81.9726,"EPHEMERIS_TYPE":0,"CLASSIFICATION_TYPE":"U","NORAD_CAT_ID":58747,"ELEMENT_SET_NO":999,"REV_AT_EPOCH":12215,"BSTAR":4.7368e-5,"MEAN_MOTION_DOT":1.011e-5,"MEAN_MOTION_DDOT":0},{"OBJECT_NAME":"STARLINK-31165","OBJECT_ID":"2024-005W","EPOCH":"2026-03-20T05:25:34.406688","MEAN_MOTION":15.27587968,"ECCENTRICITY":0.0001437,"INCLINATION":43.0031,"RA_OF_ASC_NODE":160.3726,"ARG_OF_PERICENTER":258.2119,"MEAN_ANOMALY":101.8572,"EPHEMERIS_TYPE":0,"CLASSIFICATION_TYPE":"U","NORAD_CAT_ID":58748,"ELEMENT_SET_NO":999,"REV_AT_EPOCH":12205,"BSTAR":6.4337e-5,"MEAN_MOTION_DOT":1.509e-5,"MEAN_MOTION_DDOT":0},{"OBJECT_NAME":"STARLINK-31160","OBJECT_ID":"2024-005X","EPOCH":"2026-03-20T05:14:46.735008","MEAN_MOTION":15.26743762,"ECCENTRICITY":0.0001571,"INCLINATION":43.0062,"RA_OF_ASC_NODE":160.2508,"ARG_OF_PERICENTER":261.9418,"MEAN_ANOMALY":98.1255,"EPHEMERIS_TYPE":0,"CLASSIFICATION_TYPE":"U","NORAD_CAT_ID":58749,"ELEMENT_SET_NO":999,"REV_AT_EPOCH":12205,"BSTAR":2.8779e-5,"MEAN_MOTION_DOT":5.12e-6,"MEAN_MOTION_DDOT":0},{"OBJECT_NAME":"STARLINK-31179","OBJECT_ID":"2024-005Y","EPOCH":"2026-03-19T07:05:54.125376","MEAN_MOTION":15.2672839,"ECCENTRICITY":0.00016055,"INCLINATION":43.0058,"RA_OF_ASC_NODE":165.4288,"ARG_OF_PERICENTER":270.7649,"MEAN_ANOMALY":89.3018,"EPHEMERIS_TYPE":0,"CLASSIFICATION_TYPE":"U","NORAD_CAT_ID":58750,"ELEMENT_SET_NO":999,"REV_AT_EPOCH":12191,"BSTAR":-5.00555e-7,"MEAN_MOTION_DOT":-2.73e-6,"MEAN_MOTION_DDOT":0},{"OBJECT_NAME":"STARLINK-31127","OBJECT_ID":"2024-011A","EPOCH":"2026-03-20T02:23:46.778208","MEAN_MOTION":15.30198102,"ECCENTRICITY":0.0001402,"INCLINATION":53.1611,"RA_OF_ASC_NODE":325.3594,"ARG_OF_PERICENTER":76.8407,"MEAN_ANOMALY":283.275,"EPHEMERIS_TYPE":0,"CLASSIFICATION_TYPE":"U","NORAD_CAT_ID":58765,"ELEMENT_SET_NO":999,"REV_AT_EPOCH":12186,"BSTAR":3.0124e-5,"MEAN_MOTION_DOT":5.33e-6,"MEAN_MOTION_DDOT":0},{"OBJECT_NAME":"STARLINK-31114","OBJECT_ID":"2024-011B","EPOCH":"2026-03-20T01:02:38.838912","MEAN_MOTION":15.30192608,"ECCENTRICITY":0.0001114,"INCLINATION":53.1601,"RA_OF_ASC_NODE":323.6109,"ARG_OF_PERICENTER":86.4959,"MEAN_ANOMALY":273.617,"EPHEMERIS_TYPE":0,"CLASSIFICATION_TYPE":"U","NORAD_CAT_ID":58766,"ELEMENT_SET_NO":999,"REV_AT_EPOCH":12188,"BSTAR":1.465e-5,"MEAN_MOTION_DOT":7.5e-7,"MEAN_MOTION_DDOT":0},{"OBJECT_NAME":"STARLINK-31140","OBJECT_ID":"2024-011C","EPOCH":"2026-03-20T02:14:39.657984","MEAN_MOTION":15.30195895,"ECCENTRICITY":0.0001082,"INCLINATION":53.1611,"RA_OF_ASC_NODE":325.3179,"ARG_OF_PERICENTER":75.4261,"MEAN_ANOMALY":284.686,"EPHEMERIS_TYPE":0,"CLASSIFICATION_TYPE":"U","NORAD_CAT_ID":58767,"ELEMENT_SET_NO":999,"REV_AT_EPOCH":12186,"BSTAR":3.9681e-5,"MEAN_MOTION_DOT":8.16e-6,"MEAN_MOTION_DDOT":0},{"OBJECT_NAME":"STARLINK-31146","OBJECT_ID":"2024-011E","EPOCH":"2026-03-20T02:10:06.044736","MEAN_MOTION":15.30199644,"ECCENTRICITY":0.000114,"INCLINATION":53.1611,"RA_OF_ASC_NODE":325.2981,"ARG_OF_PERICENTER":84.4617,"MEAN_ANOMALY":275.6514,"EPHEMERIS_TYPE":0,"CLASSIFICATION_TYPE":"U","NORAD_CAT_ID":58769,"ELEMENT_SET_NO":999,"REV_AT_EPOCH":12186,"BSTAR":8.1464e-5,"MEAN_MOTION_DOT":2.054e-5,"MEAN_MOTION_DDOT":0},{"OBJECT_NAME":"STARLINK-31143","OBJECT_ID":"2024-011F","EPOCH":"2026-03-20T02:05:32.625024","MEAN_MOTION":15.30193351,"ECCENTRICITY":0.0001321,"INCLINATION":53.1613,"RA_OF_ASC_NODE":325.2775,"ARG_OF_PERICENTER":75.5065,"MEAN_ANOMALY":284.6083,"EPHEMERIS_TYPE":0,"CLASSIFICATION_TYPE":"U","NORAD_CAT_ID":58770,"ELEMENT_SET_NO":999,"REV_AT_EPOCH":12186,"BSTAR":2.9987e-5,"MEAN_MOTION_DOT":5.29e-6,"MEAN_MOTION_DDOT":0},{"OBJECT_NAME":"STARLINK-31135","OBJECT_ID":"2024-011G","EPOCH":"2026-03-19T23:13:23.841120","MEAN_MOTION":15.30195486,"ECCENTRICITY":8.58e-5,"INCLINATION":53.1604,"RA_OF_ASC_NODE":323.8431,"ARG_OF_PERICENTER":63.6711,"MEAN_ANOMALY":296.4378,"EPHEMERIS_TYPE":0,"CLASSIFICATION_TYPE":"U","NORAD_CAT_ID":58771,"ELEMENT_SET_NO":999,"REV_AT_EPOCH":12187,"BSTAR":1.3068e-5,"MEAN_MOTION_DOT":2.8e-7,"MEAN_MOTION_DDOT":0},{"OBJECT_NAME":"STARLINK-31136","OBJECT_ID":"2024-011H","EPOCH":"2026-03-20T02:19:13.267776","MEAN_MOTION":15.30198558,"ECCENTRICITY":0.0001084,"INCLINATION":53.1593,"RA_OF_ASC_NODE":325.3334,"ARG_OF_PERICENTER":75.0431,"MEAN_ANOMALY":285.069,"EPHEMERIS_TYPE":0,"CLASSIFICATION_TYPE":"U","NORAD_CAT_ID":58772,"ELEMENT_SET_NO":999,"REV_AT_EPOCH":12185,"BSTAR":0.00012575,"MEAN_MOTION_DOT":3.367e-5,"MEAN_MOTION_DDOT":0},{"OBJECT_NAME":"STARLINK-31073","OBJECT_ID":"2024-011J","EPOCH":"2026-03-20T02:28:20.338752","MEAN_MOTION":15.30197496,"ECCENTRICITY":0.0001135,"INCLINATION":53.1609,"RA_OF_ASC_NODE":325.376,"ARG_OF_PERICENTER":71.5059,"MEAN_ANOMALY":288.6065,"EPHEMERIS_TYPE":0,"CLASSIFICATION_TYPE":"U","NORAD_CAT_ID":58773,"ELEMENT_SET_NO":999,"REV_AT_EPOCH":12186,"BSTAR":4.8105e-5,"MEAN_MOTION_DOT":1.066e-5,"MEAN_MOTION_DDOT":0},{"OBJECT_NAME":"STARLINK-31122","OBJECT_ID":"2024-011K","EPOCH":"2026-03-19T23:29:20.950080","MEAN_MOTION":15.30196423,"ECCENTRICITY":0.000112,"INCLINATION":53.1608,"RA_OF_ASC_NODE":326.0172,"ARG_OF_PERICENTER":92.5967,"MEAN_ANOMALY":267.5162,"EPHEMERIS_TYPE":0,"CLASSIFICATION_TYPE":"U","NORAD_CAT_ID":58774,"ELEMENT_SET_NO":999,"REV_AT_EPOCH":12184,"BSTAR":6.0522e-6,"MEAN_MOTION_DOT":-1.8e-6,"MEAN_MOTION_DDOT":0},{"OBJECT_NAME":"STARLINK-31123","OBJECT_ID":"2024-011L","EPOCH":"2026-03-20T01:57:57.104352","MEAN_MOTION":15.30203335,"ECCENTRICITY":0.0001294,"INCLINATION":53.1603,"RA_OF_ASC_NODE":325.24,"ARG_OF_PERICENTER":85.6499,"MEAN_ANOMALY":274.4649,"EPHEMERIS_TYPE":0,"CLASSIFICATION_TYPE":"U","NORAD_CAT_ID":58775,"ELEMENT_SET_NO":999,"REV_AT_EPOCH":12186,"BSTAR":9.3765e-5,"MEAN_MOTION_DOT":2.419e-5,"MEAN_MOTION_DDOT":0},{"OBJECT_NAME":"STARLINK-31117","OBJECT_ID":"2024-011M","EPOCH":"2026-03-20T02:48:03.533184","MEAN_MOTION":15.30265193,"ECCENTRICITY":0.0001102,"INCLINATION":53.1608,"RA_OF_ASC_NODE":325.4529,"ARG_OF_PERICENTER":66.7812,"MEAN_ANOMALY":293.3304,"EPHEMERIS_TYPE":0,"CLASSIFICATION_TYPE":"U","NORAD_CAT_ID":58776,"ELEMENT_SET_NO":999,"REV_AT_EPOCH":12186,"BSTAR":-0.00030372,"MEAN_MOTION_DOT":-9.361e-5,"MEAN_MOTION_DDOT":0},{"OBJECT_NAME":"STARLINK-31132","OBJECT_ID":"2024-011N","EPOCH":"2026-03-19T20:13:58.155744","MEAN_MOTION":15.30196487,"ECCENTRICITY":0.00011981,"INCLINATION":53.1598,"RA_OF_ASC_NODE":236.3719,"ARG_OF_PERICENTER":88.7345,"MEAN_ANOMALY":271.3793,"EPHEMERIS_TYPE":0,"CLASSIFICATION_TYPE":"U","NORAD_CAT_ID":58777,"ELEMENT_SET_NO":999,"REV_AT_EPOCH":12311,"BSTAR":4.212966e-5,"MEAN_MOTION_DOT":8.89e-6,"MEAN_MOTION_DDOT":0}]
